1 45366U 20019G   22365.23746926  .00002082  00000-0  15867-3 0  9995
2 45366  53.0555 354.0503 0002452  42.4851 317.6327 15.06396438154224
1 45366U 20019G   22365.23746926  .00002082  00000-0  15867-3 0  9995
2 45366  53.0555 354.0503 0002452  42.4851 317.6327 15.06396438154224
1 45366U 20019G   22365.70188919  .00003607  00000-0  26091-3 0  9994
2 45366  53.0572 351.9664 0002411  38.6977 321.4184 15.06404735154299
1 45366U 20019G   22365.70188919  .00003607  00000-0  26091-3 0  9994
2 45366  53.0572 351.9664 0002411  38.6977 321.4184 15.06404735154299
1 45366U 20019G   23001.23266976  .00001555  00000-0  12332-3 0  9993
2 45366  53.0575 349.5842 0002473  37.9119 322.2044 15.06398713154372
1 45366U 20019G   23001.23266976  .00001555  00000-0  12332-3 0  9993
2 45366  53.0575 349.5842 0002473  37.9119 322.2044 15.06398713154372
1 45366U 20019G   23001.96250009 -.00001515  00000-0 -82856-4 0  9990
2 45366  53.0563 346.3079 0002429  36.3137 323.8017 15.06380402154485
1 45366U 20019G   23002.09518774 -.00000453  00000-0 -11479-4 0  9994
2 45366  53.0571 345.7115 0002060  40.7410 319.3733 15.06388149154506
1 45366U 20019G   23002.36057031  .00000046  00000-0  22026-4 0  9994
2 45366  53.0571 344.5188 0002437  37.9812 322.1348 15.06397546154544
1 45366U 20019G   23002.36057031  .00000046  00000-0  22026-4 0  9994
2 45366  53.0571 344.5188 0002437  37.9812 322.1348 15.06397546154544
1 45366U 20019G   23002.89134433 -.00000163  00000-0  80017-5 0  9990
2 45366  53.0559 342.1371 0002430  37.4244 322.6914 15.06398939154625
1 45366U 20019G   23003.35578177 -.00000084  00000-0  13283-4 0  9991
2 45366  53.0578 340.0550 0002436  39.3423 320.7743 15.06387643154694
1 45366U 20019G   23003.62116799  .00000498  00000-0  52354-4 0  9999
2 45366  53.0583 338.8640 0002448  39.2374 320.8792 15.06390032154738
1 45366U 20019G   23004.28464162  .00000708  00000-0  66432-4 0  9998
2 45366  53.0569 335.8850 0002564  36.7639 323.3526 15.06392635154832
1 45366U 20019G   23004.61636778  .00001629  00000-0  12822-3 0  9995
2 45366  53.0574 334.3964 0002552  38.5641 321.5530 15.06404049154881
1 45366U 20019G   23004.88174867  .00003332  00000-0  24240-3 0  9990
2 45366  53.0571 333.2027 0002350  36.0433 324.0715 15.06409726154929
1 45366U 20019G   23005.27982788  .00004137  00000-0  29637-3 0  9992
2 45366  53.0563 331.4157 0002535  43.8638 316.2552 15.06416089154980
1 45366U 20019G   23005.27982788  .00004137  00000-0  29637-3 0  9992
2 45366  53.0563 331.4157 0002535  43.8638 316.2552 15.06416089154980
1 45366U 20019G   23005.81060019  .00003288  00000-0  23944-3 0  9997
2 45366  53.0562 329.0342 0002585  41.9989 318.1198 15.06413749155068
1 45366U 20019G   23006.27503787 -.00001604  00000-0 -88771-4 0  9994
2 45366  53.0564 326.9509 0002372  33.0385 327.0752 15.06392899155132
1 45366U 20019G   23006.40773299 -.00006280  00000-0 -40321-3 0  9999
2 45366  53.0556 326.3532 0002313  41.0181 319.0982 15.06383127155153
1 45366U 20019G   23006.40773299 -.00006280  00000-0 -40321-3 0  9999
2 45366  53.0556 326.3532 0002313  41.0181 319.0982 15.06383127155153
1 45366U 20019G   23007.13754911 -.00000900  00000-0 -41544-4 0  9992
2 45366  53.0555 323.0776 0002190  36.9693 323.1446 15.06392466155269
1 45366U 20019G   23007.20389478  .00002966  00000-0  21792-3 0  9996
2 45366  53.0558 322.7793 0002341  40.0149 320.1012 15.06400682155274
1 45366U 20019G   23007.60198139  .00015755  00000-0  10741-2 0  9993
2 45366  53.0558 320.9917 0002388  40.7567 319.3601 15.06403689155335
1 45366U 20019G   23008.19910504  .00003206  00000-0  23405-3 0  9996
2 45366  53.0555 318.3119 0001572  49.1706 310.9419 15.06396053155429
1 45366U 20019G   23008.33180019  .00003331  00000-0  24246-3 0  9995
2 45366  53.0560 317.7140 0001823  47.3934 312.7209 15.06394820155443
1 45366U 20019G   23009.52603918  .00005179  00000-0  36628-3 0  9994
2 45366  53.0563 312.3553 0002331  43.0632 317.0539 15.06408806155622
1 45366U 20019G   23009.52603918  .00005179  00000-0  36628-3 0  9994
2 45366  53.0563 312.3553 0002331  43.0632 317.0539 15.06408806155622
1 45366U 20019G   23009.85777300  .00003417  00000-0  24813-3 0  9993
2 45366  53.0562 310.8656 0002391  44.0826 316.0354 15.06406207155672
1 45366U 20019G   23010.18951201 -.00000622  00000-0 -22833-4 0  9993
2 45366  53.0559 309.3774 0002245  40.6970 319.4186 15.06394188155722
1 45366U 20019G   23010.18951201 -.00000622  00000-0 -22833-4 0  9993
2 45366  53.0559 309.3774 0002245  40.6970 319.4186 15.06394188155722
1 45366U 20019G   23010.78663250 -.00000526  00000-0 -16380-4 0  9996
2 45366  53.0560 306.6968 0002281  41.3776 318.7385 15.06396619155815
1 45366U 20019G   23011.18470384  .00002456  00000-0  18367-3 0  9993
2 45366  53.0564 304.9103 0002125  48.0777 312.0392 15.06411721155876
1 45366U 20019G   23011.51643874  .00001260  00000-0  10344-3 0  9995
2 45366  53.0567 303.4208 0002251  44.3137 315.8032 15.06410061155922
1 45366U 20019G   23012.17990885  .00001844  00000-0  14265-3 0  9999
2 45366  53.0557 300.4431 0001979  46.9587 313.1567 15.06401333156027
1 45366U 20019G   23012.17990885  .00001844  00000-0  14265-3 0  9999
2 45366  53.0557 300.4431 0001979  46.9587 313.1567 15.06401333156027
1 45366U 20019G   23013.04241600 -.00000085  00000-0  13218-4 0  9995
2 45366  53.0554 296.5698 0001860  46.7378 313.3766 15.06402385156154
1 45366U 20019G   23013.77222408  .00002014  00000-0  15401-3 0  9998
2 45366  53.0549 293.2941 0001762  40.1814 319.9305 15.06407035156267
1 45366U 20019G   23013.77222408  .00002014  00000-0  15401-3 0  9998
2 45366  53.0549 293.2941 0001762  40.1814 319.9305 15.06407035156267
1 45366U 20019G   23014.17029735  .00009052  00000-0  62549-3 0  9995
2 45366  53.0553 291.5066 0001800  39.2131 320.8988 15.06417343156323
1 45366U 20019G   23014.56839918 -.00004311  00000-0 -27084-3 0  9990
2 45366  53.0552 289.7202 0001278  47.1157 312.9939 15.06378716156382
1 45366U 20019G   23015.16554091 -.00002972  00000-0 -18083-3 0  9993
2 45366  53.0565 287.0365 0001475  57.6027 302.5104 15.06374905156473
1 45366U 20019G   23015.56361253 -.00002272  00000-0 -13371-3 0  9991
2 45366  53.0542 285.2529 0001413  49.2911 310.8200 15.06384641156535
1 45366U 20019G   23015.56361253 -.00002272  00000-0 -13371-3 0  9991
2 45366  53.0542 285.2529 0001413  49.2911 310.8200 15.06384641156535
1 45366U 20019G   23015.89533973  .00001838  00000-0  14227-3 0  9993
2 45366  53.0542 283.7610 0001217  71.5496 288.5625 15.06402333156583
1 45366U 20019G   23016.02802762  .00005043  00000-0  35707-3 0  9992
2 45366  53.0557 283.1651 0001445  55.1602 304.9523 15.06414861156600
1 45366U 20019G   23016.42613220 -.00003443  00000-0 -21256-3 0  9993
2 45366  53.0549 281.3800 0001085  80.7942 279.3169 15.06366544156669
1 45366U 20019G   23016.42613220 -.00003443  00000-0 -21256-3 0  9993
2 45366  53.0549 281.3800 0001085  80.7942 279.3169 15.06366544156669
1 45366U 20019G   23016.82421370 -.00007234  00000-0 -46762-3 0  9991
2 45366  53.0551 279.5935 0000834 102.2105 257.8978 15.06374207156723
1 45366U 20019G   23016.82421370 -.00007234  00000-0 -46762-3 0  9991
2 45366  53.0551 279.5935 0000834 102.2105 257.8978 15.06374207156723
1 45366U 20019G   23017.15595153  .00026239  00000-0  17745-2 0  9991
2 45366  53.0537 278.1046 0001184  98.9750 261.1373 15.06386517156770
1 45366U 20019G   23017.48768881  .00018080  00000-0  12298-2 0  9990
2 45366  53.0534 276.6146 0001365 103.9468 256.1673 15.06392908156829
1 45366U 20019G   23017.81942467  .00011419  00000-0  78437-3 0  9998
2 45366  53.0534 275.1258 0001164  99.9800 260.1320 15.06395031156877
1 45366U 20019G   23018.01846507  .00018280  00000-0  12428-2 0  9999
2 45366  53.0534 274.2328 0001184 100.4994 259.6129 15.06403085156902
1 45366U 20019G   23018.41654468  .00019610  00000-0  13315-2 0  9990
2 45366  53.0534 272.4455 0001136 105.3481 254.7634 15.06406172156968
1 45366U 20019G   23018.88097044  .00008892  00000-0  61489-3 0  9998
2 45366  53.0530 270.3602 0001169 100.8152 259.2969 15.06410806157035
1 45366U 20019G   23018.94731626  .00009431  00000-0  65096-3 0  9994
2 45366  53.0530 270.0621 0001177 100.3085 259.8037 15.06413097157040
1 45366U 20019G   23019.41174885  .00000197  00000-0  32162-4 0  9994
2 45366  53.0529 267.9772 0001733  86.5018 273.6169 15.06396720157110
1 45366U 20019G   23019.41174885  .00000197  00000-0  32162-4 0  9994
2 45366  53.0529 267.9772 0001733  86.5018 273.6169 15.06396720157110
1 45366U 20019G   23020.40695488  .00006962  00000-0  48578-3 0  9995
2 45366  53.0534 263.5119 0001325  83.0963 277.0177 15.06400472157264
1 45366U 20019G   23020.93772719  .00015270  00000-0  10414-2 0  9995
2 45366  53.0529 261.1275 0001196  88.9294 271.1832 15.06414995157349
1 45366U 20019G   23021.66753850  .00010922  00000-0  75063-3 0  9992
2 45366  53.0518 257.8529 0001148  78.7263 281.3855 15.06417040157455
1 45366U 20019G   23022.33099997  .00013450  00000-0  91956-3 0  9990
2 45366  53.0524 254.8728 0000491  94.7455 265.3590 15.06421609157556
1 45366U 20019G   23022.66274195  .00010197  00000-0  70231-3 0  9999
2 45366  53.0529 253.3854 0002762  99.7909 260.3392 15.06406391157609
1 45366U 20019G   23023.06082451  .00012991  00000-0  88960-3 0  9998
2 45366  53.0527 251.5957 0001115  87.6006 272.5110 15.06393244157667
1 45366U 20019G   23023.98967908  .00012973  00000-0  88793-3 0  9992
2 45366  53.0528 247.4257 0001084  83.0205 277.0907 15.06412414157802
1 45366U 20019G   23024.85218693  .00003326  00000-0  24205-3 0  9999
2 45366  53.0516 243.5528 0001077 105.2387 254.8721 15.06404005157935
1 45366U 20019G   23025.31661623  .00001564  00000-0  12389-3 0  9998
2 45366  53.0518 241.4680 0001123  88.4966 271.6151 15.06400542158005
1 45366U 20019G   23025.84739261  .00000915  00000-0  80289-4 0  9994
2 45366  53.0523 239.0834 0001053  91.0582 269.0528 15.06397700158089
1 45366U 20019G   23025.84739261  .00000915  00000-0  80289-4 0  9994
2 45366  53.0523 239.0834 0001053  91.0582 269.0528 15.06397700158089
1 45366U 20019G   23026.51086272  .00001545  00000-0  12256-3 0  9994
2 45366  53.0522 236.1055 0001152  90.4543 269.6578 15.06397718158182
1 45366U 20019G   23027.37337267  .00001524  00000-0  12116-3 0  9994
2 45366  53.0527 232.2355 0001213  83.7004 276.4123 15.06398875158314
1 45366U 20019G   23027.37337267  .00001524  00000-0  12116-3 0  9994
2 45366  53.0527 232.2355 0001213  83.7004 276.4123 15.06398875158314
1 45366U 20019G   23027.77145390  .00001790  00000-0  13900-3 0  9999
2 45366  53.0525 230.4481 0001173  83.2620 276.8503 15.06398847158377
1 45366U 20019G   23028.50126498  .00002799  00000-0  20670-3 0  9991
2 45366  53.0525 227.1728 0001209  64.4845 295.6269 15.06405455158488
1 45366U 20019G   23028.83299534  .00003134  00000-0  22916-3 0  9998
2 45366  53.0522 225.6813 0001156  84.2534 275.8587 15.06408989158533
1 45366U 20019G   23029.23107937  .00000544  00000-0  55432-4 0  9990
2 45366  53.0522 223.8947 0001134  82.0002 278.1115 15.06400202158592
1 45366U 20019G   23029.69551095 -.00001277  00000-0 -66853-4 0  9993
2 45366  53.0524 221.8099 0001127  96.8695 263.2422 15.06392648158661
1 45366U 20019G   23029.82820461 -.00001206  00000-0 -62111-4 0  9999
2 45366  53.0524 221.2142 0001116  96.7973 263.3143 15.06392962158682
1 45366U 20019G   23030.55802198 -.00001429  00000-0 -77072-4 0  9997
2 45366  53.0524 217.9377 0001120  94.7188 265.3928 15.06393173158795
1 45366U 20019G   23030.62436921 -.00001410  00000-0 -75805-4 0  9994
2 45366  53.0523 217.6398 0001122  93.8336 266.2782 15.06392908158806
1 45366U 20019G   23031.55322931  .00002574  00000-0  19165-3 0  9998
2 45366  53.0523 213.4696 0001109  95.3337 264.7779 15.06393657158940
1 45366U 20019G   23031.55322931  .00002574  00000-0  19165-3 0  9998
2 45366  53.0523 213.4696 0001109  95.3337 264.7779 15.06393657158940
1 45366U 20019G   23031.88496281  .00003045  00000-0  22326-3 0  9991
2 45366  53.0524 211.9804 0001105  93.8504 266.2611 15.06397841158996
